PROMETHEUS 2-3          
1 41855U 16067H   23321.44699506  .00008804  00000+0  55388-3 0  9998
2 41855  98.0778 118.4629 0013629  70.1514 290.1181 15.09394440383571
DIDO-2                  
1 42000U 17008BE  23321.10032427  .00025793  00000+0  48511-3 0  9999
2 42000  97.1802  15.3911 0004829 178.9510 181.1752 15.48533503375523
PEASSS                  
1 42015U 17008BV  23321.44536229  .00588537  15158-3  12886-2 0  9990
2 42015  97.1718  28.2100 0003463 246.2059 113.8856 15.98186818376838
UCLSAT                  
1 42765U 17036A   23319.09106188  .01528767  17315-2  15537-2 0  9990
2 42765  97.1086   0.1302 0005121 239.8622 120.2155 16.11331465357501
AALTO-1                 
1 42775U 17036L   23321.07311713  .00023325  00000+0  52265-3 0  9993
2 42775  97.1356 347.3064 0005881 272.2299  87.8276 15.43415832356031
URSA MAIOR              
1 42776U 17036M   23321.52741017  .00026116  00000+0  51749-3 0  9995
2 42776  97.1361 349.6880 0005290 260.7471  99.3181 15.47018356356214
DIAMOND RED             
1 42783U 17036U   23321.54581038  .00036540  00000+0  58623-3 0  9990
2 42783  97.1292 353.8917 0003150 261.6761  98.4136 15.52972832356481
PEGASUS                 
1 42784U 17036V   23321.34867873  .00134329  00000+0  99187-3 0  9997
2 42784  97.1219 358.7839 0002841 205.3635 154.7490 15.72580477356806
DIAMOND GREEN           
1 42785U 17036W   23321.56975675  .00046370  00000+0  66784-3 0  9997
2 42785  97.1273 354.4808 0003157 251.6768 108.4144 15.55895469356597
DIAMOND BLUE            
1 42786U 17036X   23321.04052028  .00048134  00000+0  73974-3 0  9998
2 42786  97.1309 353.7095 0003495 250.8543 109.2333 15.54106097356494
CICERO 6                
1 42793U 17036AE  23320.53914376  .00035181  00000+0  64960-3 0  9995
2 42793  97.1285 352.4224 0003340 268.5355  91.5514 15.49008086356397
CORVUS BC2              
1 42846U 17042X   23321.51667996  .00001802  00000+0  16635-3 0  9992
2 42846  97.3748 153.7594 0010031  59.9203 300.3012 14.95751268345639
CORVUS BC1              
1 42847U 17042Y   23321.49768380  .00003073  00000+0  27946-3 0  9998
2 42847  97.3749 154.1124 0010016  60.6779 299.5443 14.95866289345643
MIRATA                  
1 43015U 17073C   23321.55939705  .00013462  00000+0  77642-3 0  9999
2 43015  97.6101 205.1469 0193594 261.3449  96.5801 14.97960467324401
MAKERSAT 0              
1 43016U 17073D   23320.63180203  .00011205  00000+0  71471-3 0  9996
2 43016  97.6071 201.1759 0212789 277.9446  79.7673 14.92018415324013
CORVUS BC3              
1 43118U 18004H   23321.49476594  .00032661  00000+0  61319-3 0  9999
2 43118  97.3118  36.4641 0004908 309.1515  50.9299 15.48539825325674
CICERO 7                
1 43143U 18004AJ  23316.95209561  .02592973  24144-5  77798-3 0  9998
2 43143  97.3097  50.6433 0009283 280.2242  79.8004 16.26944402326103
GOMX-4B                 
1 43196U 18015E   23321.41810796  .00021222  00000+0  47138-3 0  9999
2 43196  97.5942 117.7607 0012020  17.3884 342.7773 15.43644604322520
GOMX-4A                 
1 43197U 18015F   23321.56255399  .00022833  00000+0  43566-3 0  9998
2 43197  97.5918 120.9122 0011157   9.2953 350.8501 15.48093671322750
CUBEBEL-1 (BSUSAT-1)    
1 43666U 18083E   23321.54694305  .00057608  00000+0  86420-3 0  9990
2 43666  97.3597 355.3816 0004287 280.4011  79.6759 15.54727741280876
CICERO 10               
1 43690U 18088A   23321.44966332  .00025876  00000+0  54684-3 0  9992
2 43690  85.0258 328.3131 0010100  37.9938 322.2027 15.44973843279086
PROXIMA I               
1 43694U 18088E   23321.48801506  .00035717  00000+0  62546-3 0  9992
2 43694  85.0175 323.1864 0008095 358.0103   2.1121 15.50404479279434
PROXIMA II              
1 43696U 18088G   23321.51909896  .00034024  00000+0  60115-3 0  9999
2 43696  85.0175 323.2500 0008216 357.7058   2.4160 15.50154443279422
SIRION PATHFINDER-2     
1 43759U 18099B   23320.95137528  .00003513  00000+0  28607-3 0  9992
2 43759  97.5503  18.2417 0012677 310.5565  49.4554 15.00092086270517
CORVUS BC4              
1 43767U 18099K   23321.43580440  .00003623  00000+0  29883-3 0  9999
2 43767  97.5463  16.4279 0008357 339.0171  21.0708 14.99608455270489
MOVE-II                 
1 43780U 18099Y   23321.17322190  .00010018  00000+0  65805-3 0  9991
2 43780  97.5529  22.1945 0007802   1.6283 358.4969 15.07790864270753
SPACEBEE-7              
1 43816U 18099BL  23321.11874998  .00008183  00000+0  57103-3 0  9995
2 43816  97.5800  23.1008 0010120 301.2254  58.7981 15.05587291270299
SPACEBEE-5              
1 43817U 18099BM  23321.48267545  .00071979  00000+0  20204-2 0  9994
2 43817  97.5720  35.4203 0003941 261.0615  99.0182 15.36280796271051
SPACEBEE-6              
1 43818U 18099BN  23321.42209471  .00011893  00000+0  71005-3 0  9998
2 43818  97.5711  26.3038 0009840 311.9075  48.1315 15.11229805270662
SHIELDS 1               
1 43850U 18104B   23321.33523251  .00008708  00000+0  28264-3 0  9996
2 43850  85.0261  66.8295 0013232 141.6408 218.5783 15.31692611273523
STF-1                   
1 43852U 18104D   23321.55780444  .00066647  00000+0  78656-3 0  9997
2 43852  85.0168  61.1764 0006014 142.9206 217.2473 15.61077838274153
ZACUBE-2                
1 43907U 18111AH  23321.62955934  .00038754  00000+0  61309-3 0  9997
2 43907  97.1055 198.4936 0013358  25.9512 334.2409 15.53252977272851
LUME 1                  
1 43908U 18111AJ  23321.43121509  .00078835  00000+0  78811-3 0  9990
2 43908  97.1067 203.7703 0009284  20.4634 339.6997 15.65296451273181
MOVE-IIB                
1 44398U 19038N   23319.79115340  .00423757  00000+0  20123-2 0  9994
2 44398  97.6645 313.0009 0012854 104.4068 255.8627 15.81730181242206
SONATE                  
1 44400U 19038Q   23321.17364265  .00011652  00000+0  46073-3 0  9995
2 44400  97.7004 302.5327 0020559 132.1093 228.1896 15.25448964241521
LUCKY-7                 
1 44406U 19038W   23321.49278918  .00014957  00000+0  51473-3 0  9996
2 44406  97.6961 304.8983 0019081 121.9720 238.3377 15.29988719241711
BEESAT 9                
1 44412U 19038AC  23321.18740476  .00035506  00000+0  85523-3 0  9998
2 44412  97.6857 308.0474 0015645 111.0304 249.2617 15.41053763241627
JAISAT-1                
1 44419U 19038F   23321.50366226  .00031725  00000+0  76226-3 0  9997
2 44419  97.6842 309.5035 0015336 107.5022 252.7901 15.41158309242056
DUCHIFAT-3              
1 44854U 19089C   23321.51810125  .00007624  00000+0  46900-3 0  9996
2 44854  36.9602 252.8254 0006490 162.1878 197.9095 15.09631148216055
EYESAT-NANO             
1 44877U 19092E   23321.51124928  .02353908  75630-2  21042-2 0  9998
2 44877  97.4214 159.0119 0003841 307.2471  52.8464 16.14771740217978
M2 PATHFINDER           
1 45727U 20037E   23321.44504968  .00003289  00000+0  30356-3 0  9999
2 45727  97.7647 134.4726 0013132 111.1768 249.0857 14.95263196184137
NETSAT-4                
1 46504U 20068U   23321.31580244  .00006351  00000+0  39194-3 0  9996
2 46504  97.7809 268.9531 0011518  21.0359 339.1341 15.10224963171995
NETSAT-3                
1 46505U 20068V   23321.43881239  .00005274  00000+0  32901-3 0  9990
2 46505  97.7786 268.8033 0010933  28.9174 331.2658 15.09914285172016
NETSAT-1                
1 46506U 20068W   23321.32938585  .00005445  00000+0  34611-3 0  9996
2 46506  97.7807 268.4883 0009706  38.1746 322.0168 15.09220720171987
NETSAT-2                
1 46507U 20068X   23321.58605421  .00005846  00000+0  36205-3 0  9991
2 46507  97.7801 268.9294 0009387  44.9395 315.2592 15.10148749171980
SAI-1 NANOCONNECT-2     
1 47701U 21015C   23321.48208062  .01175685  82342-3  15106-2 0  9999
2 47701  97.3606  51.5466 0007986 295.7983  64.2475 16.07381625152108
WILDTRACKCUBE-SIMBA     
1 47941U 21022K   23321.60824828  .00006866  00000+0  36624-3 0  9990
2 47941  97.4787 216.0170 0018002 159.2142 200.9826 15.15338880146214
BEESAT-6                
1 47957U 21022AB  23320.95393887  .00032976  00000+0  11919-2 0  9990
2 47957  97.4762 219.2568 0014612 140.6180 219.6125 15.28284069146187
SMOG-1                  
1 47964U 21022AJ  23321.29111024  .00025964  00000+0  89046-3 0  9993
2 47964  97.4815 222.1605 0014030 125.7052 234.5496 15.30057752145406
BCCSAT-1                
1 48041U 21022AK  23321.47329504  .00020522  00000+0  79167-3 0  9992
2 48041  97.4808 220.5962 0012186 126.9734 233.2622 15.26262075145298
BEESAT-5                
1 48083U 21022AM  23321.19425890  .00030840  00000+0  10345-2 0  9998
2 48083  97.4588 219.9265 0014134 135.8088 224.4284 15.30739235145404
BEESAT-7                
1 48084U 21022AN  23321.47387419  .00026503  00000+0  93574-3 0  9991
2 48084  97.4733 220.0453 0014238 136.6857 223.5504 15.29104072145001
BEESAT-8                
1 48085U 21022AP  23320.96975779  .00012945  00000+0  59151-3 0  9995
2 48085  97.4858 217.8956 0016277 151.4391 208.7740 15.20581049145365
LEDSAT                  
1 49069U 21073D   23321.15133097  .00009766  00000+0  48516-3 0  9995
2 49069  97.4657  29.6314 0021205 311.8203  48.1219 15.17672668124079
